IRIDIUM 171             
1 43929U 19002H   24023.91526481  .00000640  00000+0  22138-3 0  9994
2 43929  86.3995 359.5745 0002087  89.3612 270.7823 14.34218134263509
IRIDIUM 170             
1 43930U 19002J   24023.94508126  .00001892  00000+0  29632-3 0  9991
2 43930  86.6115 359.4044 0002402  89.4845 270.6647 14.72234601270486
IRIDIUM 167             
1 43931U 19002K   24023.90892197  .00000041  00000+0  74422-5 0  9996
2 43931  86.3986 359.3827 0002065  88.7877 271.3555 14.34217332263501
IRIDIUM 181             
1 56726U 23068S   24023.61160603  .00000681  00000+0  19544-3 0  9999
2 56726  86.8602  46.1614 0001653 104.4802 255.6583 14.43594025 36138
IRIDIUM 177             
1 56727U 23068T   24023.94937009  .00001042  00000+0  13362-3 0  9992
2 56727  86.1965  24.2978 0002485  94.0610 266.0895 14.80217742 36893
IRIDIUM 174             
1 56728U 23068U   24023.94397766  .00001071  00000+0  13755-3 0  9991
2 56728  86.1974  24.3924 0002442  93.0048 267.1452 14.80211313 36892
IRIDIUM 178             
1 56729U 23068V   24023.53292406  .00001071  00000+0  13761-3 0  9999
2 56729  86.5762  35.1445 0002468  95.4471 264.7032 14.80200033 36832
IRIDIUM 179             
1 56730U 23068W   24023.86549232  .00000968  00000+0  12414-3 0  9997
2 56730  86.6769  37.3053 0002189  92.6824 267.4648 14.80193431 36883
